{
  "type": "FeatureCollection",
  "features": [
    {
      "type": "Feature",
      "properties": {
        "norad_id": 58701,
        "name": "TIANMU-1 16",
        "group": "weather",
        "lat": 25.84031903324768,
        "lon": 5.407341192365697,
        "alt_km": 490.4803062057017,
        "timestamp": "2025-12-26T23:26:41.800537+00:00",
        "meta_object_name": "TIANMU-1 16",
        "meta_object_id": "2024-004B",
        "meta_epoch": "2025-12-26T14:53:46.408992",
        "meta_mean_motion": 15.24620187,
        "meta_eccentricity": 0.00044641,
        "meta_inclination": 97.4571,
        "meta_ra_of_asc_node": 181.4159,
        "meta_arg_of_pericenter": 232.7252,
        "meta_mean_anomaly": 127.3579,
        "meta_ephemeris_type": 0,
        "meta_classification_type": "U",
        "meta_norad_cat_id": 58701,
        "meta_element_set_no": 999,
        "meta_rev_at_epoch": 10946,
        "meta_bstar": 0.00029736752,
        "meta_mean_motion_dot": 7.267e-05,
        "meta_mean_motion_ddot": 0,
        "tle_line1": "1 58701U 24004B   25360.62067603  .00007267  00000+0  29737-3 0  9999",
        "tle_line2": "2 58701  97.4571 181.4159 0004464 232.7252 127.3579 15.24620187109466"
      },
      "geometry": {
        "type": "Point",
        "coordinates": [
          5.407341192365697,
          25.84031903324768
        ]
      }
    },
    {
      "type": "Feature",
      "properties": {
        "norad_id": 58702,
        "name": "TIANMU-1 17",
        "group": "weather",
        "lat": -59.81644788847574,
        "lon": -10.832912937734543,
        "alt_km": 496.47915442041085,
        "timestamp": "2025-12-26T23:26:41.800546+00:00",
        "meta_object_name": "TIANMU-1 17",
        "meta_object_id": "2024-004C",
        "meta_epoch": "2025-12-26T19:14:32.646336",
        "meta_mean_motion": 15.2466611,
        "meta_eccentricity": 0.0003642,
        "meta_inclination": 97.4605,
        "meta_ra_of_asc_node": 182.0134,
        "meta_arg_of_pericenter": 232.5163,
        "meta_mean_anomaly": 127.5744,
        "meta_ephemeris_type": 0,
        "meta_classification_type": "U",
        "meta_norad_cat_id": 58702,
        "meta_element_set_no": 999,
        "meta_rev_at_epoch": 10948,
        "meta_bstar": 0.00032273,
        "meta_mean_motion_dot": 7.904e-05,
        "meta_mean_motion_ddot": 0,
        "tle_line1": "1 58702U 24004C   25360.80176674  .00007904  00000+0  32273-3 0  9996",
        "tle_line2": "2 58702  97.4605 182.0134 0003642 232.5163 127.5744 15.24666110109485"
      },
      "geometry": {
        "type": "Point",
        "coordinates": [
          -10.832912937734543,
          -59.81644788847574
        ]
      }
    },
    {
      "type": "Feature",
      "properties": {
        "norad_id": 58703,
        "name": "TIANMU-1 18",
        "group": "weather",
        "lat": -28.47517448029318,
        "lon": -173.53696344652656,
        "alt_km": 498.2376863618829,
        "timestamp": "2025-12-26T23:26:41.800556+00:00",
        "meta_object_name": "TIANMU-1 18",
        "meta_object_id": "2024-004D",
        "meta_epoch": "2025-12-26T15:41:42.228672",
        "meta_mean_motion": 15.24646213,
        "meta_eccentricity": 0.00030322,
        "meta_inclination": 97.4622,
        "meta_ra_of_asc_node": 182.0646,
        "meta_arg_of_pericenter": 229.4643,
        "meta_mean_anomaly": 130.6331,
        "meta_ephemeris_type": 0,
        "meta_classification_type": "U",
        "meta_norad_cat_id": 58703,
        "meta_element_set_no": 999,
        "meta_rev_at_epoch": 10946,
        "meta_bstar": 0.00031460831,
        "meta_mean_motion_dot": 7.698e-05,
        "meta_mean_motion_ddot": 0,
        "tle_line1": "1 58703U 24004D   25360.65396098  .00007698  00000+0  31461-3 0  9992",
        "tle_line2": "2 58703  97.4622 182.0646 0003032 229.4643 130.6331 15.24646213109461"
      },
      "geometry": {
        "type": "Point",
        "coordinates": [
          -173.53696344652656,
          -28.47517448029318
        ]
      }
    },
    {
      "type": "Feature",
      "properties": {
        "norad_id": 58990,
        "name": "INSAT-3DS",
        "group": "weather",
        "lat": 0.06418693595361633,
        "lon": 169.47253345587754,
        "alt_km": 35787.93625392521,
        "timestamp": "2025-12-26T23:26:41.800566+00:00",
        "meta_object_name": "INSAT-3DS",
        "meta_object_id": "2024-033A",
        "meta_epoch": "2025-12-26T08:17:23.335008",
        "meta_mean_motion": 1.00270939,
        "meta_eccentricity": 0.00013251,
        "meta_inclination": 0.0628,
        "meta_ra_of_asc_node": 99.0061,
        "meta_arg_of_pericenter": 177.0285,
        "meta_mean_anomaly": 25.5123,
        "meta_ephemeris_type": 0,
        "meta_classification_type": "U",
        "meta_norad_cat_id": 58990,
        "meta_element_set_no": 999,
        "meta_rev_at_epoch": 4533,
        "meta_bstar": 0,
        "meta_mean_motion_dot": -1.34e-06,
        "meta_mean_motion_ddot": 0,
        "tle_line1": "1 58990U 24033A   25360.34540897 -.00000134  00000+0  00000+0 0  9996",
        "tle_line2": "2 58990   0.0628  99.0061 0001325 177.0285  25.5123  1.00270939 45339"
      },
      "geometry": {
        "type": "Point",
        "coordinates": [
          169.47253345587754,
          0.06418693595361633
        ]
      }
    },
    {
      "type": "Feature",
      "properties": {
        "norad_id": 59051,
        "name": "METEOR-M2 4",
        "group": "weather",
        "lat": -40.29970897194878,
        "lon": -34.8937540338672,
        "alt_km": 819.1699196521186,
        "timestamp": "2025-12-26T23:26:41.800575+00:00",
        "meta_object_name": "METEOR-M2 4",
        "meta_object_id": "2024-039A",
        "meta_epoch": "2025-12-26T15:11:43.022112",
        "meta_mean_motion": 14.22403409,
        "meta_eccentricity": 0.00063323,
        "meta_inclination": 98.6786,
        "meta_ra_of_asc_node": 317.3255,
        "meta_arg_of_pericenter": 316.3935,
        "meta_mean_anomaly": 43.6742,
        "meta_ephemeris_type": 0,
        "meta_classification_type": "U",
        "meta_norad_cat_id": 59051,
        "meta_element_set_no": 999,
        "meta_rev_at_epoch": 9473,
        "meta_bstar": 4.2088416e-05,
        "meta_mean_motion_dot": 5e-07,
        "meta_mean_motion_ddot": 0,
        "tle_line1": "1 59051U 24039A   25360.63313683  .00000050  00000+0  42088-4 0  9997",
        "tle_line2": "2 59051  98.6786 317.3255 0006332 316.3935  43.6742 14.22403409 94734"
      },
      "geometry": {
        "type": "Point",
        "coordinates": [
          -34.8937540338672,
          -40.29970897194878
        ]
      }
    },
    {
      "type": "Feature",
      "properties": {
        "norad_id": 60133,
        "name": "GOES 19",
        "group": "weather",
        "lat": 0.009601271754642288,
        "lon": 12.192053255216194,
        "alt_km": 35785.41422705134,
        "timestamp": "2025-12-26T23:26:41.800585+00:00",
        "meta_object_name": "GOES 19",
        "meta_object_id": "2024-119A",
        "meta_epoch": "2025-12-26T12:35:56.409216",
        "meta_mean_motion": 1.00266665,
        "meta_eccentricity": 9.47e-05,
        "meta_inclination": 0.0307,
        "meta_ra_of_asc_node": 217.6802,
        "meta_arg_of_pericenter": 97.1965,
        "meta_mean_anomaly": 254.1873,
        "meta_ephemeris_type": 0,
        "meta_classification_type": "U",
        "meta_norad_cat_id": 60133,
        "meta_element_set_no": 999,
        "meta_rev_at_epoch": 523,
        "meta_bstar": 0,
        "meta_mean_motion_dot": -2.26e-06,
        "meta_mean_motion_ddot": 0,
        "tle_line1": "1 60133U 24119A   25360.52495844 -.00000226  00000+0  00000+0 0  9996",
        "tle_line2": "2 60133   0.0307 217.6802 0000947  97.1965 254.1873  1.00266665  5230"
      },
      "geometry": {
        "type": "Point",
        "coordinates": [
          12.192053255216194,
          0.009601271754642288
        ]
      }
    },
    {
      "type": "Feature",
      "properties": {
        "norad_id": 65815,
        "name": "FENGYUN 3H",
        "group": "weather",
        "lat": 68.56204911859986,
        "lon": -82.57964516849025,
        "alt_km": 818.4813368316027,
        "timestamp": "2025-12-26T23:26:41.800596+00:00",
        "meta_object_name": "FENGYUN 3H",
        "meta_object_id": "2025-219A",
        "meta_epoch": "2025-12-26T18:02:29.052096",
        "meta_mean_motion": 14.19908441,
        "meta_eccentricity": 8.72e-05,
        "meta_inclination": 98.6602,
        "meta_ra_of_asc_node": 300.039,
        "meta_arg_of_pericenter": 109.9263,
        "meta_mean_anomaly": 250.2007,
        "meta_ephemeris_type": 0,
        "meta_classification_type": "U",
        "meta_norad_cat_id": 65815,
        "meta_element_set_no": 999,
        "meta_rev_at_epoch": 1291,
        "meta_bstar": 7.0269e-05,
        "meta_mean_motion_dot": 1.06e-06,
        "meta_mean_motion_ddot": 0,
        "tle_line1": "1 65815U 25219A   25360.75172514  .00000106  00000+0  70269-4 0  9996",
        "tle_line2": "2 65815  98.6602 300.0390 0000872 109.9263 250.2007 14.19908441 12910"
      },
      "geometry": {
        "type": "Point",
        "coordinates": [
          -82.57964516849025,
          68.56204911859986
        ]
      }
    }
  ]
}